GLOBALSTAR M019 [-]     
1 25677U 99019B   24038.33542456 -.00000073  00000+0  17512-3 0  9993
2 25677  51.9909  13.9960 0001230  42.0378 125.1951 12.13852728124921
GLOBALSTAR M044 [-]     
1 25678U 99019C   24038.61366704 -.00000029  00000+0  76920-3 0  9994
2 25678  51.9949 262.5880 0006436 156.7999 230.3533 11.90228647112310
GLOBALSTAR M042 [-]     
1 25679U 99019D   24038.35625203 -.00000070  00000+0  20983-3 0  9992
2 25679  52.0042  10.6636 0003134   1.5205 164.5053 12.22055293124631
GLOBALSTAR M025 [-]     
1 25770U 99031A   24037.70391663 -.00000039  00000+0  89335-3 0  9997
2 25770  51.9777 229.4040 0002161  60.8803  19.7568 11.22549338425954
GLOBALSTAR M049 [-]     
1 25771U 99031B   24037.83974069 -.00000058  00000+0  23994-3 0  9999
2 25771  51.9834 238.9089 0002137 258.0646 101.9911 11.12102512 62205
GLOBALSTAR M047 [-]     
1 25772U 99031C   24038.38836736 -.00000069  00000+0  89646-5 0  9999
2 25772  51.9830 282.0041 0016792 128.5866 231.6447 11.31918042414960
GLOBALSTAR M052 [-]     
1 25773U 99031D   24038.60947189 -.00000024  00000+0  14115-2 0  9997
2 25773  51.9909 352.8066 0002837  68.5526 102.1662 11.15048355423225
